{
  "norad_id": 58008,
  "name": "STARLINK-30522",
  "history": [
    {
      "epoch": "2026-05-06T08:46:37.458912Z",
      "apogee_km": 484.5998420426713,
      "perigee_km": 481.56512466518325,
      "latitude_deg": 4.0894677872353985e-05,
      "longitude_deg": 105.73358188616139,
      "height_km": 482.810859601089,
      "semi_major_axis_km": 6861.219483353927,
      "eccentricity": 0.00022115,
      "inclination_deg": 43.0066,
      "raan_deg": 101.617,
      "arg_perigee_deg": 271.8767,
      "mean_anomaly_deg": 88.1832,
      "mean_motion_rev_day": 15.2756885
    },
    {
      "epoch": "2026-05-07T14:35:35.663424Z",
      "apogee_km": 484.17246178917776,
      "perigee_km": 481.9357134946067,
      "latitude_deg": -8.5235080657587e-06,
      "longitude_deg": 10.249599369115373,
      "height_km": 482.9585791718789,
      "semi_major_axis_km": 6861.191087641892,
      "eccentricity": 0.000163,
      "inclination_deg": 43.005,
      "raan_deg": 94.6001,
      "arg_perigee_deg": 263.4759,
      "mean_anomaly_deg": 96.5907,
      "mean_motion_rev_day": 15.27578333
    },
    {
      "epoch": "2026-05-08T14:07:56.627040Z",
      "apogee_km": 483.590691965308,
      "perigee_km": 482.5203459323511,
      "latitude_deg": -6.285380662817197e-05,
      "longitude_deg": 10.657971206738488,
      "height_km": 482.98318993036776,
      "semi_major_axis_km": 6861.192518948829,
      "eccentricity": 7.8e-05,
      "inclination_deg": 43.0013,
      "raan_deg": 89.0626,
      "arg_perigee_deg": 253.5659,
      "mean_anomaly_deg": 106.5106,
      "mean_motion_rev_day": 15.27577855
    },
    {
      "epoch": "2026-05-09T05:49:30.005760Z",
      "apogee_km": 483.821152714494,
      "perigee_km": 482.2509046551495,
      "latitude_deg": -8.238326194253647e-06,
      "longitude_deg": 130.93257741653738,
      "height_km": 483.0393334434387,
      "semi_major_axis_km": 6861.1730286848215,
      "eccentricity": 0.00011443,
      "inclination_deg": 43.001,
      "raan_deg": 85.3707,
      "arg_perigee_deg": 253.211,
      "mean_anomaly_deg": 106.8616,
      "mean_motion_rev_day": 15.27584364
    },
    {
      "epoch": "2026-05-10T13:12:38.461824Z",
      "apogee_km": 484.7141207678533,
      "perigee_km": 481.44818092805053,
      "latitude_deg": -2.8261393519855136e-05,
      "longitude_deg": 11.47015625530603,
      "height_km": 483.1505381526016,
      "semi_major_axis_km": 6861.218150847952,
      "eccentricity": 0.000238,
      "inclination_deg": 43.0079,
      "raan_deg": 77.9825,
      "arg_perigee_deg": 259.7305,
      "mean_anomaly_deg": 100.3278,
      "mean_motion_rev_day": 15.27569295
    },
    {
      "epoch": "2026-05-11T12:44:57.592896Z",
      "apogee_km": 484.11741757506843,
      "perigee_km": 481.7005455176086,
      "latitude_deg": 4.6885992825224345e-05,
      "longitude_deg": 11.884025160762624,
      "height_km": 482.6027374721934,
      "semi_major_axis_km": 6861.045981546338,
      "eccentricity": 0.00017613,
      "inclination_deg": 43.0041,
      "raan_deg": 72.4427,
      "arg_perigee_deg": 273.9713,
      "mean_anomaly_deg": 86.0938,
      "mean_motion_rev_day": 15.27626794
    },
    {
      "epoch": "2026-05-12T12:17:19.860288Z",
      "apogee_km": 483.9118248356026,
      "perigee_km": 482.2157360026831,
      "latitude_deg": 5.2065470723866994e-05,
      "longitude_deg": 12.288916411572337,
      "height_km": 482.88819827811386,
      "semi_major_axis_km": 6861.200780419143,
      "eccentricity": 0.0001236,
      "inclination_deg": 43.0032,
      "raan_deg": 66.9071,
      "arg_perigee_deg": 266.7884,
      "mean_anomaly_deg": 93.2827,
      "mean_motion_rev_day": 15.27575096
    },
    {
      "epoch": "2026-05-13T05:33:03.264192Z",
      "apogee_km": 483.9610751320288,
      "perigee_km": 482.3116250186704,
      "latitude_deg": 1.2473171043080942e-06,
      "longitude_deg": 108.58748554945275,
      "height_km": 482.8800055703572,
      "semi_major_axis_km": 6861.273350075349,
      "eccentricity": 0.0001202,
      "inclination_deg": 43.002,
      "raan_deg": 62.8455,
      "arg_perigee_deg": 272.3008,
      "mean_anomaly_deg": 87.7706,
      "mean_motion_rev_day": 15.27550861
    }
  ]
}